STARLINK-3297           
1 50159U 21125D   26068.76164687 -.00000207  00000+0  50740-5 0  9998
2 50159  53.2175 258.8095 0001456  97.4511 262.6647 15.08837403236468
CHAMRAN-1               
1 61072U 24165B   26068.91010681  .00007263  00000+0  44320-3 0  9995
2 61072  64.0789   8.4365 0045019 310.8781  48.8437 15.10235792 81665
